{
  "type": "FeatureCollection",
  "features": [
    {
      "type": "Feature",
      "properties": {
        "norad_id": 30127,
        "name": "FENGYUN 1C DEB",
        "group": "fengyun-1c-debris",
        "lat": -24.46232027740004,
        "lon": 14.296031228731207,
        "alt_km": 790.4431836401145,
        "timestamp": "2025-12-07T07:31:36.572309+00:00",
        "meta_object_name": "FENGYUN 1C DEB",
        "meta_object_id": "1999-025SG",
        "meta_epoch": "2025-12-06T13:53:08.963808",
        "meta_mean_motion": 14.37864665,
        "meta_eccentricity": 0.00847649,
        "meta_inclination": 98.2064,
        "meta_ra_of_asc_node": 197.3582,
        "meta_arg_of_pericenter": 97.6708,
        "meta_mean_anomaly": 263.4117,
        "meta_ephemeris_type": 0,
        "meta_classification_type": "U",
        "meta_norad_cat_id": 30127,
        "meta_element_set_no": 999,
        "meta_rev_at_epoch": 97147,
        "meta_bstar": 0.0039207737,
        "meta_mean_motion_dot": 0.00012307,
        "meta_mean_motion_ddot": 0,
        "tle_line1": "1 30127U 99025SG  25340.57857597  .00012307  00000+0  39208-2 0  9991",
        "tle_line2": "2 30127  98.2064 197.3582 0084764  97.6708 263.4117 14.37864665971477"
      },
      "geometry": {
        "type": "Point",
        "coordinates": [
          14.296031228731207,
          -24.46232027740004
        ]
      }
    },
    {
      "type": "Feature",
      "properties": {
        "norad_id": 30128,
        "name": "FENGYUN 1C DEB",
        "group": "fengyun-1c-debris",
        "lat": 22.34265876517072,
        "lon": -21.868267347529983,
        "alt_km": 775.3886295795328,
        "timestamp": "2025-12-07T07:31:36.572319+00:00",
        "meta_object_name": "FENGYUN 1C DEB",
        "meta_object_id": "1999-025SH",
        "meta_epoch": "2025-12-06T23:22:10.450848",
        "meta_mean_motion": 14.459562,
        "meta_eccentricity": 0.01074494,
        "meta_inclination": 96.9796,
        "meta_ra_of_asc_node": 340.7377,
        "meta_arg_of_pericenter": 143.0114,
        "meta_mean_anomaly": 272.4982,
        "meta_ephemeris_type": 0,
        "meta_classification_type": "U",
        "meta_norad_cat_id": 30128,
        "meta_element_set_no": 999,
        "meta_rev_at_epoch": 97228,
        "meta_bstar": 0.0037058327,
        "meta_mean_motion_dot": 0.00014156,
        "meta_mean_motion_ddot": 0,
        "tle_line1": "1 30128U 99025SH  25340.97373207  .00014156  00000+0  37058-2 0  9992",
        "tle_line2": "2 30128  96.9796 340.7377 0107449 143.0114 272.4982 14.45956200972280"
      },
      "geometry": {
        "type": "Point",
        "coordinates": [
          -21.868267347529983,
          22.34265876517072
        ]
      }
    },
    {
      "type": "Feature",
      "properties": {
        "norad_id": 30129,
        "name": "FENGYUN 1C DEB",
        "group": "fengyun-1c-debris",
        "lat": 51.591714483533806,
        "lon": 114.06575359723018,
        "alt_km": 754.3106947155811,
        "timestamp": "2025-12-07T07:31:36.572329+00:00",
        "meta_object_name": "FENGYUN 1C DEB",
        "meta_object_id": "1999-025SJ",
        "meta_epoch": "2025-12-06T19:13:32.547360",
        "meta_mean_motion": 14.0156268,
        "meta_eccentricity": 0.0188692,
        "meta_inclination": 98.0264,
        "meta_ra_of_asc_node": 283.3628,
        "meta_arg_of_pericenter": 109.2026,
        "meta_mean_anomaly": 313.0335,
        "meta_ephemeris_type": 0,
        "meta_classification_type": "U",
        "meta_norad_cat_id": 30129,
        "meta_element_set_no": 999,
        "meta_rev_at_epoch": 96395,
        "meta_bstar": 0.0007202525,
        "meta_mean_motion_dot": 1.239e-05,
        "meta_mean_motion_ddot": 0,
        "tle_line1": "1 30129U 99025SJ  25340.80107115  .00001239  00000+0  72025-3 0  9990",
        "tle_line2": "2 30129  98.0264 283.3628 0188692 109.2026 313.0335 14.01562680963955"
      },
      "geometry": {
        "type": "Point",
        "coordinates": [
          114.06575359723018,
          51.591714483533806
        ]
      }
    },
    {
      "type": "Feature",
      "properties": {
        "norad_id": 30131,
        "name": "FENGYUN 1C DEB",
        "group": "fengyun-1c-debris",
        "lat": 5.216329489571077,
        "lon": -106.16398878519172,
        "alt_km": 763.9415351822845,
        "timestamp": "2025-12-07T07:31:36.572363+00:00",
        "meta_object_name": "FENGYUN 1C DEB",
        "meta_object_id": "1999-025SL",
        "meta_epoch": "2025-12-06T19:27:22.575744",
        "meta_mean_motion": 14.21081382,
        "meta_eccentricity": 0.00832216,
        "meta_inclination": 99.0754,
        "meta_ra_of_asc_node": 72.4834,
        "meta_arg_of_pericenter": 175.3407,
        "meta_mean_anomaly": 307.6883,
        "meta_ephemeris_type": 0,
        "meta_classification_type": "U",
        "meta_norad_cat_id": 30131,
        "meta_element_set_no": 999,
        "meta_rev_at_epoch": 96604,
        "meta_bstar": 0.0047345664,
        "meta_mean_motion_dot": 0.00010614,
        "meta_mean_motion_ddot": 0,
        "tle_line1": "1 30131U 99025SL  25340.81067796  .00010614  00000+0  47346-2 0  9998",
        "tle_line2": "2 30131  99.0754  72.4834 0083221 175.3407 307.6883 14.21081382966045"
      },
      "geometry": {
        "type": "Point",
        "coordinates": [
          -106.16398878519172,
          5.216329489571077
        ]
      }
    },
    {
      "type": "Feature",
      "properties": {
        "norad_id": 30132,
        "name": "FENGYUN 1C DEB",
        "group": "fengyun-1c-debris",
        "lat": -42.93587231601943,
        "lon": -56.26958296951675,
        "alt_km": 941.1042925902084,
        "timestamp": "2025-12-07T07:31:36.572375+00:00",
        "meta_object_name": "FENGYUN 1C DEB",
        "meta_object_id": "1999-025SM",
        "meta_epoch": "2025-12-06T19:59:42.272160",
        "meta_mean_motion": 13.94839821,
        "meta_eccentricity": 0.01057403,
        "meta_inclination": 99.5766,
        "meta_ra_of_asc_node": 294.1948,
        "meta_arg_of_pericenter": 65.4958,
        "meta_mean_anomaly": 0.605,
        "meta_ephemeris_type": 0,
        "meta_classification_type": "U",
        "meta_norad_cat_id": 30132,
        "meta_element_set_no": 999,
        "meta_rev_at_epoch": 96007,
        "meta_bstar": 0.00081350396,
        "meta_mean_motion_dot": 1.097e-05,
        "meta_mean_motion_ddot": 0,
        "tle_line1": "1 30132U 99025SM  25340.83312815  .00001097  00000+0  81350-3 0  9995",
        "tle_line2": "2 30132  99.5766 294.1948 0105740  65.4958   0.6050 13.94839821960075"
      },
      "geometry": {
        "type": "Point",
        "coordinates": [
          -56.26958296951675,
          -42.93587231601943
        ]
      }
    },
    {
      "type": "Feature",
      "properties": {
        "norad_id": 30133,
        "name": "FENGYUN 1C DEB",
        "group": "fengyun-1c-debris",
        "lat": -26.341683542629287,
        "lon": 152.59061831198676,
        "alt_km": 842.9281126932719,
        "timestamp": "2025-12-07T07:31:36.572385+00:00",
        "meta_object_name": "FENGYUN 1C DEB",
        "meta_object_id": "1999-025SN",
        "meta_epoch": "2025-12-06T23:40:54.456096",
        "meta_mean_motion": 14.06627701,
        "meta_eccentricity": 0.00856046,
        "meta_inclination": 98.3241,
        "meta_ra_of_asc_node": 148.1327,
        "meta_arg_of_pericenter": 276.7904,
        "meta_mean_anomaly": 201.523,
        "meta_ephemeris_type": 0,
        "meta_classification_type": "U",
        "meta_norad_cat_id": 30133,
        "meta_element_set_no": 999,
        "meta_rev_at_epoch": 96297,
        "meta_bstar": 0.002533741,
        "meta_mean_motion_dot": 4.305e-05,
        "meta_mean_motion_ddot": 0,
        "tle_line1": "1 30133U 99025SN  25340.98674139  .00004305  00000+0  25337-2 0  9999",
        "tle_line2": "2 30133  98.3241 148.1327 0085604 276.7904 201.5230 14.06627701962973"
      },
      "geometry": {
        "type": "Point",
        "coordinates": [
          152.59061831198676,
          -26.341683542629287
        ]
      }
    },
    {
      "type": "Feature",
      "properties": {
        "norad_id": 30134,
        "name": "FENGYUN 1C DEB",
        "group": "fengyun-1c-debris",
        "lat": 35.4728980453126,
        "lon": -173.24200156913327,
        "alt_km": 837.7322904274579,
        "timestamp": "2025-12-07T07:31:36.572395+00:00",
        "meta_object_name": "FENGYUN 1C DEB",
        "meta_object_id": "1999-025SP",
        "meta_epoch": "2025-12-06T19:49:33.830400",
        "meta_mean_motion": 14.13332736,
        "meta_eccentricity": 0.0018709,
        "meta_inclination": 98.6941,
        "meta_ra_of_asc_node": 0.0247,
        "meta_arg_of_pericenter": 200.2493,
        "meta_mean_anomaly": 344.715,
        "meta_ephemeris_type": 0,
        "meta_classification_type": "U",
        "meta_norad_cat_id": 30134,
        "meta_element_set_no": 999,
        "meta_rev_at_epoch": 97162,
        "meta_bstar": 0.00080531045,
        "meta_mean_motion_dot": 1.471e-05,
        "meta_mean_motion_ddot": 0,
        "tle_line1": "1 30134U 99025SP  25340.82608600  .00001471  00000+0  80531-3 0  9992",
        "tle_line2": "2 30134  98.6941   0.0247 0018709 200.2493 344.7150 14.13332736971620"
      },
      "geometry": {
        "type": "Point",
        "coordinates": [
          -173.24200156913327,
          35.4728980453126
        ]
      }
    }
  ]
}